OBJECT_NAME,OBJECT_ID,EPOCH,MEAN_MOTION,ECCENTRICITY,INCLINATION,RA_OF_ASC_NODE,ARG_OF_PERICENTER,MEAN_ANOMALY,EPHEMERIS_TYPE,CLASSIFICATION_TYPE,NORAD_CAT_ID,ELEMENT_SET_NO,REV_AT_EPOCH,BSTAR,MEAN_MOTION_DOT,MEAN_MOTION_DDOT
STARLINK-3945,2022-053AM,2023-02-01T11:15:21.932640,15.08835943,.0001151,53.2158,186.8629,85.2960,274.8163,0,U,52691,999,4022,.40903E-4,.363E-5,0
STARLINK-3993,2022-053AN,2023-02-01T09:55:52.467744,15.08838806,.0001125,53.2165,187.1116,86.6700,273.4421,0,U,52692,999,4021,.64551E-4,.74E-5,0
STARLINK-3946,2022-053AP,2023-02-01T11:04:46.004448,15.08834561,.0000936,53.2155,186.8969,90.6469,269.4631,0,U,52693,999,3982,.3508E-4,.271E-5,0
STARLINK-4072,2022-053AQ,2023-02-02T03:19:48.991872,15.08840057,.0001218,53.2164,183.8504,83.0973,277.0158,0,U,52694,999,3992,.78386E-4,.96E-5,0
STARLINK-4041,2022-053AR,2023-02-01T12:48:48.916800,15.08834239,.0001258,53.2141,191.5735,93.8474,266.2662,0,U,52695,999,3976,.27699E-4,.153E-5,0
STARLINK-4025,2022-053AS,2023-02-02T03:03:55.879776,15.08830143,.0001663,53.2155,183.9064,81.6289,278.4892,0,U,52696,999,3992,-.78077E-5,-.412E-5,0
STARLINK-4018,2022-053AT,2023-02-01T12:59:24.775872,15.08837328,.0001018,53.2148,191.5315,90.2129,269.8980,0,U,52697,999,4017,.50149E-4,.51E-5,0
STARLINK-4030,2022-053AU,2023-02-01T10:04:32.531808,15.08837507,.0000974,53.2158,192.0827,80.8908,279.2195,0,U,52698,999,4014,.57426E-4,.626E-5,0
STARLINK-3987,2022-053AV,2023-02-01T11:04:09.105600,15.08845120,.000136,53.2146,181.8843,84.2216,275.8932,0,U,52699,999,4031,.70427E-4,.833E-5,0
STARLINK-4034,2022-053AW,2023-02-02T03:23:11.237856,15.08837544,.000143,53.2185,188.8427,83.9982,276.1173,0,U,52700,999,3985,.68507E-4,.802E-5,0
STARLINK-4003,2022-053AX,2023-02-02T02:33:26.901504,15.08841439,.0000726,53.2159,174.0050,79.1946,280.9128,0,U,52701,999,4005,.5258E-4,.549E-5,0
STARLINK-4033,2022-053AY,2023-02-02T03:12:43.037280,15.08757902,.0002097,53.2142,188.8814,72.5852,287.5369,0,U,52702,999,3985,-.53821E-3,-.8824E-4,0
STARLINK-4020,2022-053AZ,2023-02-01T18:20:37.159008,15.08839017,.0001176,53.2157,175.5381,88.6123,271.5004,0,U,52703,999,4000,.57658E-4,.63E-5,0
STARLINK-3999,2022-053BA,2023-02-01T10:44:53.624832,15.08839281,.0001407,53.2172,176.9624,88.4949,271.6204,0,U,52704,999,4038,.11615E-3,.1561E-4,0
STARLINK-3844,2022-053BB,2023-02-01T10:29:00.087648,15.08827617,.000154,53.2142,177.0041,93.6876,266.4293,0,U,52705,999,4038,.88035E-4,.1113E-4,0
STARLINK-3970,2022-053BC,2023-02-01T10:34:17.733792,15.08837121,.0001177,53.2168,176.9898,94.6670,265.4457,0,U,52706,999,4038,.37801E-4,.314E-5,0
STARLINK-4007,2022-053BD,2023-02-01T13:30:33.137856,15.08833614,.0001586,53.2148,176.4442,85.3903,274.7270,0,U,52707,999,4046,.23189E-4,.81E-6,0
STARLINK-3962,2022-053BE,2023-02-02T03:00:07.706880,15.09157602,.0001167,53.2166,173.9020,92.7166,267.3960,0,U,52708,999,4006,-.333E-2,-.53352E-3,0
COSMOS 2556,2022-054A,2023-02-02T05:27:13.440096,15.20596068,.0005385,97.5528,313.8059,239.7362,276.6404,0,U,52713,999,3923,.19901E-3,.4291E-4,0
2022-056A,2022-056A,2023-02-02T05:02:51.434592,14.03584718,.0017891,86.0038,206.5827,226.9083,133.0599,0,U,52716,999,3616,.16367E-3,.275E-5,0
2022-056B,2022-056B,2023-02-01T21:06:28.909728,13.29533994,.0045342,86.0057,216.8562,149.6185,210.7594,0,U,52717,999,3469,.39248E-4,.34E-6,0
2022-056C,2022-056C,2023-02-02T05:09:41.571936,14.03577878,.0013895,86.0040,206.5851,218.8086,141.2099,0,U,52718,999,3616,.16812E-3,.282E-5,0
LEMUR-2-TENNYSONLILY,2022-057A,2023-02-02T02:32:57.645600,15.18327189,.0007818,97.5360,150.2813,111.2110,248.9960,0,U,52732,999,3818,.97831E-3,.20064E-3,0
LEMUR-2-VANDENDRIES,2022-057B,2023-02-01T06:12:28.413216,15.17015710,.0007453,97.5231,149.0469,112.4931,247.7092,0,U,52733,999,3805,.55548E-3,.10929E-3,0
PTD-3 (TYVAK-0125),2022-057C,2023-02-01T07:37:29.060544,15.21586797,.0005661,97.5267,149.7910,106.5850,253.6007,0,U,52734,999,3809,.15994E-2,.36169E-3,0
OP15 FLT2 (TYVAK-0821),2022-057D,2023-02-02T02:37:10.490016,15.16458434,.0008745,97.5276,149.8956,106.2064,254.0132,0,U,52735,999,3817,.67067E-3,.13007E-3,0
LEMUR-2-KAREN B,2022-057E,2023-02-01T07:38:26.122560,15.18831063,.000643,97.5227,149.2162,97.7082,262.4882,0,U,52736,999,3807,.10703E-2,.2228E-3,0
GHGSAT-C3,2022-057F,2023-02-02T02:46:35.152896,15.13371851,.0010122,97.5314,149.5559,102.0646,21.7550,0,U,52737,999,3814,.21732E-3,.3815E-4,0
PLANETUM1,2022-057G,2023-02-01T07:11:41.316000,15.15498279,.0008363,97.5257,148.9036,98.7291,261.4889,0,U,52738,999,3804,.53893E-3,.10153E-3,0
CONNECTA T1.1,2022-057H,2023-02-02T01:18:20.874528,15.13991748,.0010227,97.5355,149.7202,101.7279,258.5101,0,U,52739,999,3814,.32674E-3,.5872E-4,0
