STARLINK-3945           
1 52691U 22053AM  23032.46900385  .00000363  00000+0  40903-4 0  9991
2 52691  53.2158 186.8629 0001151  85.2960 274.8163 15.08835943 40222
STARLINK-3993           
1 52692U 22053AN  23032.41380171  .00000740  00000+0  64551-4 0  9996
2 52692  53.2165 187.1116 0001125  86.6700 273.4421 15.08838806 40216
STARLINK-3946           
1 52693U 22053AP  23032.46164357  .00000271  00000+0  35080-4 0  9992
2 52693  53.2155 186.8969 0000936  90.6469 269.4631 15.08834561 39821
STARLINK-4072           
1 52694U 22053AQ  23033.13876148  .00000960  00000+0  78386-4 0  9997
2 52694  53.2164 183.8504 0001218  83.0973 277.0158 15.08840057 39921
STARLINK-4041           
1 52695U 22053AR  23032.53389950  .00000153  00000+0  27699-4 0  9996
2 52695  53.2141 191.5735 0001258  93.8474 266.2662 15.08834239 39765
STARLINK-4025           
1 52696U 22053AS  23033.12773009 -.00000412  00000+0 -78077-5 0  9992
2 52696  53.2155 183.9064 0001663  81.6289 278.4892 15.08830143 39928
STARLINK-4018           
1 52697U 22053AT  23032.54125898  .00000510  00000+0  50149-4 0  9991
2 52697  53.2148 191.5315 0001018  90.2129 269.8980 15.08837328 40171
STARLINK-4030           
1 52698U 22053AU  23032.41982097  .00000626  00000+0  57426-4 0  9993
2 52698  53.2158 192.0827 0000974  80.8908 279.2195 15.08837507 40146
STARLINK-3987           
1 52699U 22053AV  23032.46121650  .00000833  00000+0  70427-4 0  9995
2 52699  53.2146 181.8843 0001360  84.2216 275.8932 15.08845120 40318
STARLINK-4034           
1 52700U 22053AW  23033.14110229  .00000802  00000+0  68507-4 0  9996
2 52700  53.2185 188.8427 0001430  83.9982 276.1173 15.08837544 39852
STARLINK-4003           
1 52701U 22053AX  23033.10656136  .00000549  00000+0  52580-4 0  9997
2 52701  53.2159 174.0050 0000726  79.1946 280.9128 15.08841439 40052
STARLINK-4033           
1 52702U 22053AY  23033.13383145 -.00008824  00000+0 -53821-3 0  9992
2 52702  53.2142 188.8814 0002097  72.5852 287.5369 15.08757902 39859
STARLINK-4020           
1 52703U 22053AZ  23032.76431897  .00000630  00000+0  57658-4 0  9997
2 52703  53.2157 175.5381 0001176  88.6123 271.5004 15.08839017 40000
STARLINK-3999           
1 52704U 22053BA  23032.44784288  .00001561  00000+0  11615-3 0  9994
2 52704  53.2172 176.9624 0001407  88.4949 271.6204 15.08839281 40381
STARLINK-3844           
1 52705U 22053BB  23032.43680657  .00001113  00000+0  88035-4 0  9993
2 52705  53.2142 177.0041 0001540  93.6876 266.4293 15.08827617 40389
STARLINK-3970           
1 52706U 22053BC  23032.44048303  .00000314  00000+0  37801-4 0  9998
2 52706  53.2168 176.9898 0001177  94.6670 265.4457 15.08837121 40387
STARLINK-4007           
1 52707U 22053BD  23032.56288354  .00000081  00000+0  23189-4 0  9999
2 52707  53.2148 176.4442 0001586  85.3903 274.7270 15.08833614 40464
STARLINK-3962           
1 52708U 22053BE  23033.12508920 -.00053352  00000+0 -33300-2 0  9992
2 52708  53.2166 173.9020 0001167  92.7166 267.3960 15.09157602 40064
COSMOS 2556             
1 52713U 22054A   23033.22723889  .00004291  00000+0  19901-3 0  9991
2 52713  97.5528 313.8059 0005385 239.7362 276.6404 15.20596068 39236
2022-056A               
1 52716U 22056A   23033.21031753  .00000275  00000+0  16367-3 0  9998
2 52716  86.0038 206.5827 0017891 226.9083 133.0599 14.03584718 36161
2022-056B               
1 52717U 22056B   23032.87950127  .00000034  00000+0  39248-4 0  9992
2 52717  86.0057 216.8562 0045342 149.6185 210.7594 13.29533994 34690
2022-056C               
1 52718U 22056C   23033.21506449  .00000282  00000+0  16812-3 0  9992
2 52718  86.0040 206.5851 0013895 218.8086 141.2099 14.03577878 36161
LEMUR-2-TENNYSONLILY    
1 52732U 22057A   23033.10622275  .00020064  00000+0  97831-3 0  9993
2 52732  97.5360 150.2813 0007818 111.2110 248.9960 15.18327189 38185
LEMUR-2-VANDENDRIES     
1 52733U 22057B   23032.25866219  .00010929  00000+0  55548-3 0  9995
2 52733  97.5231 149.0469 0007453 112.4931 247.7092 15.17015710 38057
PTD-3 (TYVAK-0125)      
1 52734U 22057C   23032.31769746  .00036169  00000+0  15994-2 0  9994
2 52734  97.5267 149.7910 0005661 106.5850 253.6007 15.21586797 38097
OP15 FLT2 (TYVAK-0821)  
1 52735U 22057D   23033.10914919  .00013007  00000+0  67067-3 0  9992
2 52735  97.5276 149.8956 0008745 106.2064 254.0132 15.16458434 38172
LEMUR-2-KAREN B         
1 52736U 22057E   23032.31835790  .00022280  00000+0  10703-2 0  9991
2 52736  97.5227 149.2162 0006430  97.7082 262.4882 15.18831063 38074
GHGSAT-C3               
1 52737U 22057F   23033.11568464  .00003815  00000+0  21732-3 0  9990
2 52737  97.5314 149.5559 0010122 102.0646  21.7550 15.13371851 38149
PLANETUM1               
1 52738U 22057G   23032.29978375  .00010153  00000+0  53893-3 0  9991
2 52738  97.5257 148.9036 0008363  98.7291 261.4889 15.15498279 38043
CONNECTA T1.1           
1 52739U 22057H   23033.05440827  .00005872  00000+0  32674-3 0  9999
2 52739  97.5355 149.7202 0010227 101.7279 258.5101 15.13991748 38142
